[{"OBJECT_NAME":"STARLINK-1727","OBJECT_ID":"2020-062L","EPOCH":"2026-03-10T00:00:02.999808","MEAN_MOTION":15.68774266,"ECCENTRICITY":0.0003989,"INCLINATION":53.0455,"RA_OF_ASC_NODE":334.6751,"ARG_OF_PERICENTER":315.6652,"MEAN_ANOMALY":309.6896,"EPHEMERIS_TYPE":0,"CLASSIFICATION_TYPE":"U","NORAD_CAT_ID":46335,"ELEMENT_SET_NO":999,"REV_AT_EPOCH":585,"BSTAR":0.0010099157,"MEAN_MOTION_DOT":0.00118879,"MEAN_MOTION_DDOT":0},{"OBJECT_NAME":"STARLINK-11163 [DTC]","OBJECT_ID":"2024-112K","EPOCH":"2026-03-09T19:38:11.215104","MEAN_MOTION":15.69687262,"ECCENTRICITY":9.178e-5,"INCLINATION":53.1592,"RA_OF_ASC_NODE":265.4541,"ARG_OF_PERICENTER":103.1854,"MEAN_ANOMALY":256.9267,"EPHEMERIS_TYPE":0,"CLASSIFICATION_TYPE":"U","NORAD_CAT_ID":60047,"ELEMENT_SET_NO":999,"REV_AT_EPOCH":10100,"BSTAR":-5.495469e-6,"MEAN_MOTION_DOT":-1.253e-5,"MEAN_MOTION_DDOT":0}]
